{"type": "FeatureCollection", "features": [ {"type": "Feature", "properties": {"norad_id": 57401, "name": "TIANMU-1 09", "group": "weather", "lat": 78.64755864817495, "lon": -7.417587661252452, "alt_km": 469.9207424194665, "timestamp": "2025-12-08T21:31:04.318690+00:00", "meta": {"OBJECT_NAME": "TIANMU-1 09", "OBJECT_ID": "2023-101C", "EPOCH": "2025-12-08T14:52:37.127424", "MEAN_MOTION": 15.27991654, "ECCENTRICITY": 0.00068207, "INCLINATION": 97.2822, "RA_OF_ASC_NODE": 31.8751, "ARG_OF_PERICENTER": 94.9033, "MEAN_ANOMALY": 265.2985, "EPHEMERIS_TYPE": 0, "CLASSIFICATION_TYPE": "U", "NORAD_CAT_ID": 57401, "ELEMENT_SET_NO": 999, "REV_AT_EPOCH": 13252, "BSTAR": 0.00040236015, "MEAN_MOTION_DOT": 0.00010928, "MEAN_MOTION_DDOT": 0}, "tle": {"line1": "1 57401U 23101C   25342.61987416  .00010928  00000+0  40236-3 0  9999", "line2": "2 57401  97.2822  31.8751 0006820  94.9033 265.2985 15.27991654132527"}}, "geometry": {"type": "Point", "coordinates": [-7.417587661252452, 78.64755864817495]}}, {"type": "Feature", "properties": {"norad_id": 57402, "name": "TIANMU-1 10", "group": "weather", "lat": -71.93648405650802, "lon": -170.12068540358763, "alt_km": 494.63985829787816, "timestamp": "2025-12-08T21:31:04.318701+00:00", "meta": {"OBJECT_NAME": "TIANMU-1 10", "OBJECT_ID": "2023-101D", "EPOCH": "2025-12-08T14:07:33.148704", "MEAN_MOTION": 15.27981656, "ECCENTRICITY": 0.00085591, "INCLINATION": 97.2903, "RA_OF_ASC_NODE": 32.6898, "ARG_OF_PERICENTER": 95.2953, "MEAN_ANOMALY": 264.9263, "EPHEMERIS_TYPE": 0, "CLASSIFICATION_TYPE": "U", "NORAD_CAT_ID": 57402, "ELEMENT_SET_NO": 999, "REV_AT_EPOCH": 13251, "BSTAR": 0.00038249752, "MEAN_MOTION_DOT": 0.00010385, "MEAN_MOTION_DDOT": 0}, "tle": {"line1": "1 57402U 23101D   25342.58857811  .00010385  00000+0  38250-3 0  9991", "line2": "2 57402  97.2903  32.6898 0008559  95.2953 264.9263 15.27981656132510"}}, "geometry": {"type": "Point", "coordinates": [-170.12068540358763, -71.93648405650802]}}, {"type": "Feature", "properties": {"norad_id": 57490, "name": "FENGYUN 3F", "group": "weather", "lat": -26.35864293304748, "lon": -133.10393169376874, "alt_km": 831.5391997396437, "timestamp": "2025-12-08T21:31:04.318711+00:00", "meta": {"OBJECT_NAME": "FENGYUN 3F", "OBJECT_ID": "2023-111A", "EPOCH": "2025-12-08T15:28:27.616512", "MEAN_MOTION": 14.1989213, "ECCENTRICITY": 6.636e-05, "INCLINATION": 98.709, "RA_OF_ASC_NODE": 51.0042, "ARG_OF_PERICENTER": 94.2688, "MEAN_ANOMALY": 265.8564, "EPHEMERIS_TYPE": 0, "CLASSIFICATION_TYPE": "U", "NORAD_CAT_ID": 57490, "ELEMENT_SET_NO": 999, "REV_AT_EPOCH": 12182, "BSTAR": 0.00011702029, "MEAN_MOTION_DOT": 2.05e-06, "MEAN_MOTION_DDOT": 0}, "tle": {"line1": "1 57490U 23111A   25342.64476408  .00000205  00000+0  11702-3 0  9998", "line2": "2 57490  98.7090  51.0042 0000663  94.2688 265.8564 14.19892130121822"}}, "geometry": {"type": "Point", "coordinates": [-133.10393169376874, -26.35864293304748]}}, {"type": "Feature", "properties": {"norad_id": 58584, "name": "ARKTIKA-M 2", "group": "weather", "lat": 40.88718146212437, "lon": -158.75871031380814, "alt_km": 22796.89441205249, "timestamp": "2025-12-08T21:31:04.318727+00:00", "meta": {"OBJECT_NAME": "ARKTIKA-M 2", "OBJECT_ID": "2023-198A", "EPOCH": "2025-12-07T20:14:37.201632", "MEAN_MOTION": 2.00604572, "ECCENTRICITY": 0.68645726, "INCLINATION": 63.2245, "RA_OF_ASC_NODE": 175.4245, "ARG_OF_PERICENTER": 268.1228, "MEAN_ANOMALY": 18.8285, "EPHEMERIS_TYPE": 0, "CLASSIFICATION_TYPE": "U", "NORAD_CAT_ID": 58584, "ELEMENT_SET_NO": 999, "REV_AT_EPOCH": 1448, "BSTAR": 0, "MEAN_MOTION_DOT": 1.69e-06, "MEAN_MOTION_DDOT": 0}, "tle": {"line1": "1 58584U 23198A   25341.84348613  .00000169  00000+0  00000+0 0  9999", "line2": "2 58584  63.2245 175.4245 6864572 268.1228  18.8285  2.00604572 14484"}}, "geometry": {"type": "Point", "coordinates": [-158.75871031380814, 40.88718146212437]}}, {"type": "Feature", "properties": {"norad_id": 58645, "name": "TIANMU-1 11", "group": "weather", "lat": 58.749292761354, "lon": -165.11321205008548, "alt_km": 491.6933573334418, "timestamp": "2025-12-08T21:31:04.318748+00:00", "meta": {"OBJECT_NAME": "TIANMU-1 11", "OBJECT_ID": "2023-205A", "EPOCH": "2025-12-08T14:41:25.575648", "MEAN_MOTION": 15.24522935, "ECCENTRICITY": 0.00082805, "INCLINATION": 97.3606, "RA_OF_ASC_NODE": 2.3078, "ARG_OF_PERICENTER": 327.0835, "MEAN_ANOMALY": 32.9886, "EPHEMERIS_TYPE": 0, "CLASSIFICATION_TYPE": "U", "NORAD_CAT_ID": 58645, "ELEMENT_SET_NO": 999, "REV_AT_EPOCH": 10846, "BSTAR": 0.00037477805, "MEAN_MOTION_DOT": 9.161e-05, "MEAN_MOTION_DDOT": 0}, "tle": {"line1": "1 58645U 23205A   25342.61210157  .00009161  00000+0  37478-3 0  9997", "line2": "2 58645  97.3606   2.3078 0008280 327.0835  32.9886 15.24522935108460"}}, "geometry": {"type": "Point", "coordinates": [-165.11321205008548, 58.749292761354]}}, {"type": "Feature", "properties": {"norad_id": 58646, "name": "TIANMU-1 12", "group": "weather", "lat": -25.648302060887275, "lon": 5.952076604729731, "alt_km": 494.49770993745915, "timestamp": "2025-12-08T21:31:04.318759+00:00", "meta": {"OBJECT_NAME": "TIANMU-1 12", "OBJECT_ID": "2023-205B", "EPOCH": "2025-12-08T15:19:46.030944", "MEAN_MOTION": 15.24403546, "ECCENTRICITY": 0.00061216, "INCLINATION": 97.3593, "RA_OF_ASC_NODE": 2.1409, "ARG_OF_PERICENTER": 309.8252, "MEAN_ANOMALY": 50.2447, "EPHEMERIS_TYPE": 0, "CLASSIFICATION_TYPE": "U", "NORAD_CAT_ID": 58646, "ELEMENT_SET_NO": 999, "REV_AT_EPOCH": 10845, "BSTAR": 0.00035423545, "MEAN_MOTION_DOT": 8.62e-05, "MEAN_MOTION_DDOT": 0}, "tle": {"line1": "1 58646U 23205B   25342.63872721  .00008620  00000+0  35424-3 0  9999", "line2": "2 58646  97.3593   2.1409 0006121 309.8252  50.2447 15.24403546108456"}}, "geometry": {"type": "Point", "coordinates": [5.952076604729731, -25.648302060887275]}}, {"type": "Feature", "properties": {"norad_id": 58647, "name": "TIANMU-1 13", "group": "weather", "lat": 30.063261850845127, "lon": -173.114507459708, "alt_km": 493.9659485043512, "timestamp": "2025-12-08T21:31:04.318769+00:00", "meta": {"OBJECT_NAME": "TIANMU-1 13", "OBJECT_ID": "2023-205C", "EPOCH": "2025-12-08T14:33:43.308864", "MEAN_MOTION": 15.24446173, "ECCENTRICITY": 0.00060837, "INCLINATION": 97.3622, "RA_OF_ASC_NODE": 2.3087, "ARG_OF_PERICENTER": 286.1939, "MEAN_ANOMALY": 73.8629, "EPHEMERIS_TYPE": 0, "CLASSIFICATION_TYPE": "U", "NORAD_CAT_ID": 58647, "ELEMENT_SET_NO": 999, "REV_AT_EPOCH": 10844, "BSTAR": 0.00038932238, "MEAN_MOTION_DOT": 9.493e-05, "MEAN_MOTION_DDOT": 0}, "tle": {"line1": "1 58647U 23205C   25342.60675126  .00009493  00000+0  38932-3 0  9993", "line2": "2 58647  97.3622   2.3087 0006083 286.1939  73.8629 15.24446173108445"}}, "geometry": {"type": "Point", "coordinates": [-173.114507459708, 30.063261850845127]}}, {"type": "Feature", "properties": {"norad_id": 58648, "name": "TIANMU-1 14", "group": "weather", "lat": -60.04763149088559, "lon": 168.99155169946647, "alt_km": 496.5507247238038, "timestamp": "2025-12-08T21:31:04.318779+00:00", "meta": {"OBJECT_NAME": "TIANMU-1 14", "OBJECT_ID": "2023-205D", "EPOCH": "2025-12-08T14:09:45.072000", "MEAN_MOTION": 15.24430099, "ECCENTRICITY": 0.00069586, "INCLINATION": 97.3554, "RA_OF_ASC_NODE": 1.6448, "ARG_OF_PERICENTER": 291.3643, "MEAN_ANOMALY": 68.6851, "EPHEMERIS_TYPE": 0, "CLASSIFICATION_TYPE": "U", "NORAD_CAT_ID": 58648, "ELEMENT_SET_NO": 999, "REV_AT_EPOCH": 10844, "BSTAR": 0.00037363014, "MEAN_MOTION_DOT": 9.104e-05, "MEAN_MOTION_DDOT": 0}, "tle": {"line1": "1 58648U 23205D   25342.59010500  .00009104  00000+0  37363-3 0  9997", "line2": "2 58648  97.3554   1.6448 0006958 291.3643  68.6851 15.24430099108443"}}, "geometry": {"type": "Point", "coordinates": [168.99155169946647, -60.04763149088559]}}, {"type": "Feature", "properties": {"norad_id": 58660, "name": "TIANMU-1 19", "group": "weather", "lat": 82.55395576603807, "lon": 5.127855587262848, "alt_km": 477.87184236926987, "timestamp": "2025-12-08T21:31:04.318792+00:00", "meta": {"OBJECT_NAME": "TIANMU-1 19", "OBJECT_ID": "2023-208A", "EPOCH": "2025-12-08T13:15:57.870432", "MEAN_MOTION": 15.27731799, "ECCENTRICITY": 0.00040384, "INCLINATION": 97.4393, "RA_OF_ASC_NODE": 93.5987, "ARG_OF_PERICENTER": 271.7925, "MEAN_ANOMALY": 88.2851, "EPHEMERIS_TYPE": 0, "CLASSIFICATION_TYPE": "U", "NORAD_CAT_ID": 58660, "ELEMENT_SET_NO": 999, "REV_AT_EPOCH": 10818, "BSTAR": 0.00045280372, "MEAN_MOTION_DOT": 0.00012204, "MEAN_MOTION_DDOT": 0}, "tle": {"line1": "1 58660U 23208A   25342.55275313  .00012204  00000+0  45280-3 0  9997", "line2": "2 58660  97.4393  93.5987 0004038 271.7925  88.2851 15.27731799108182"}}, "geometry": {"type": "Point", "coordinates": [5.127855587262848, 82.55395576603807]}}, {"type": "Feature", "properties": {"norad_id": 58661, "name": "TIANMU-1 20", "group": "weather", "lat": 32.01674283414368, "lon": -80.93196925235064, "alt_km": 480.304020118022, "timestamp": "2025-12-08T21:31:04.318802+00:00", "meta": {"OBJECT_NAME": "TIANMU-1 20", "OBJECT_ID": "2023-208B", "EPOCH": "2025-12-08T13:01:12.953856", "MEAN_MOTION": 15.28922942, "ECCENTRICITY": 0.00063457, "INCLINATION": 97.433, "RA_OF_ASC_NODE": 94.032, "ARG_OF_PERICENTER": 283.6322, "MEAN_ANOMALY": 76.4211, "EPHEMERIS_TYPE": 0, "CLASSIFICATION_TYPE": "U", "NORAD_CAT_ID": 58661, "ELEMENT_SET_NO": 999, "REV_AT_EPOCH": 10825, "BSTAR": 0.00045129422, "MEAN_MOTION_DOT": 0.00012619, "MEAN_MOTION_DDOT": 0}, "tle": {"line1": "1 58661U 23208B   25342.54251104  .00012619  00000+0  45129-3 0  9991", "line2": "2 58661  97.4330  94.0320 0006345 283.6322  76.4211 15.28922942108257"}}, "geometry": {"type": "Point", "coordinates": [-80.93196925235064, 32.01674283414368]}}]}